{"fetched_at":"2026-07-17T06:37:54.961Z","source":"https://celestrak.org/NORAD/elements/gp.php?GROUP=qianfan&FORMAT=JSON","constellation":"qianfan","records":[{"OBJECT_NAME":"QIANFAN-177","OBJECT_ID":"2026-124N","EPOCH":"2026-07-16T20:25:42.809088","CLASSIFICATION_TYPE":"U","MEAN_MOTION":13.96595567,"ECCENTRICITY":0.000802,"INCLINATION":88.9998,"RA_OF_ASC_NODE":358.6841,"ARG_OF_PERICENTER":60.3228,"MEAN_ANOMALY":299.8746,"EPHEMERIS_TYPE":0,"NORAD_CAT_ID":69394,"ELEMENT_SET_NO":999,"REV_AT_EPOCH":601,"BSTAR":0.00010052,"MEAN_MOTION_DOT":0.00000153,"MEAN_MOTION_DDOT":0},{"OBJECT_NAME":"QIANFAN-178","OBJECT_ID":"2026-124P","EPOCH":"2026-07-16T16:46:29.044992","CLASSIFICATION_TYPE":"U","MEAN_MOTION":13.95891041,"ECCENTRICITY":0.0012055,"INCLINATION":88.9987,"RA_OF_ASC_NODE":358.6988,"ARG_OF_PERICENTER":81.8515,"MEAN_ANOMALY":278.4028,"EPHEMERIS_TYPE":0,"NORAD_CAT_ID":69395,"ELEMENT_SET_NO":999,"REV_AT_EPOCH":599,"BSTAR":-1.5764,"MEAN_MOTION_DOT":-0.02005659,"MEAN_MOTION_DDOT":0},{"OBJECT_NAME":"QIANFAN-179","OBJECT_ID":"2026-124Q","EPOCH":"2026-07-16T19:52:52.475232","CLASSIFICATION_TYPE":"U","MEAN_MOTION":13.98797817,"ECCENTRICITY":0.0006635,"INCLINATION":88.9999,"RA_OF_ASC_NODE":358.6813,"ARG_OF_PERICENTER":65.2957,"MEAN_ANOMALY":294.8911,"EPHEMERIS_TYPE":0,"NORAD_CAT_ID":69396,"ELEMENT_SET_NO":999,"REV_AT_EPOCH":601,"BSTAR":-0.000010721,"MEAN_MOTION_DOT":-2e-8,"MEAN_MOTION_DDOT":0},{"OBJECT_NAME":"QIANFAN-180","OBJECT_ID":"2026-124R","EPOCH":"2026-07-16T19:59:26.460960","CLASSIFICATION_TYPE":"U","MEAN_MOTION":13.97121275,"ECCENTRICITY":0.0007007,"INCLINATION":89,"RA_OF_ASC_NODE":358.6815,"ARG_OF_PERICENTER":63.667,"MEAN_ANOMALY":296.5226,"EPHEMERIS_TYPE":0,"NORAD_CAT_ID":69397,"ELEMENT_SET_NO":999,"REV_AT_EPOCH":601,"BSTAR":0.0000097106,"MEAN_MOTION_DOT":2.7e-7,"MEAN_MOTION_DDOT":0},{"OBJECT_NAME":"QIANFAN-181","OBJECT_ID":"2026-124S","EPOCH":"2026-07-16T19:14:27.333600","CLASSIFICATION_TYPE":"U","MEAN_MOTION":13.88015447,"ECCENTRICITY":0.0005689,"INCLINATION":89.0002,"RA_OF_ASC_NODE":358.7323,"ARG_OF_PERICENTER":52.868,"MEAN_ANOMALY":307.3011,"EPHEMERIS_TYPE":0,"NORAD_CAT_ID":69398,"ELEMENT_SET_NO":999,"REV_AT_EPOCH":598,"BSTAR":-0.000057542,"MEAN_MOTION_DOT":-5.5e-7,"MEAN_MOTION_DDOT":0},{"OBJECT_NAME":"QIANFAN-182","OBJECT_ID":"2026-124T","EPOCH":"2026-07-16T17:52:13.261152","CLASSIFICATION_TYPE":"U","MEAN_MOTION":13.86082197,"ECCENTRICITY":0.0006005,"INCLINATION":88.9993,"RA_OF_ASC_NODE":358.7257,"ARG_OF_PERICENTER":80.4334,"MEAN_ANOMALY":279.7515,"EPHEMERIS_TYPE":0,"NORAD_CAT_ID":69399,"ELEMENT_SET_NO":999,"REV_AT_EPOCH":597,"BSTAR":-1.8585,"MEAN_MOTION_DOT":-0.01996081,"MEAN_MOTION_DDOT":0},{"OBJECT_NAME":"QIANFAN-183","OBJECT_ID":"2026-125A","EPOCH":"2026-07-15T21:42:38.552832","CLASSIFICATION_TYPE":"U","MEAN_MOTION":13.93228802,"ECCENTRICITY":0.00196565,"INCLINATION":88.9936,"RA_OF_ASC_NODE":277.2224,"ARG_OF_PERICENTER":84.2218,"MEAN_ANOMALY":276.1198,"EPHEMERIS_TYPE":0,"NORAD_CAT_ID":69401,"ELEMENT_SET_NO":999,"REV_AT_EPOCH":575,"BSTAR":-1.6801512,"MEAN_MOTION_DOT":-0.02040286,"MEAN_MOTION_DDOT":0},{"OBJECT_NAME":"QIANFAN-184","OBJECT_ID":"2026-125B","EPOCH":"2026-07-16T00:55:54.663168","CLASSIFICATION_TYPE":"U","MEAN_MOTION":13.90731966,"ECCENTRICITY":0.00157672,"INCLINATION":88.9945,"RA_OF_ASC_NODE":277.2067,"ARG_OF_PERICENTER":87.5099,"MEAN_ANOMALY":272.7879,"EPHEMERIS_TYPE":0,"NORAD_CAT_ID":69402,"ELEMENT_SET_NO":999,"REV_AT_EPOCH":577,"BSTAR":-1.7177311,"MEAN_MOTION_DOT":-0.01999442,"MEAN_MOTION_DDOT":0},{"OBJECT_NAME":"QIANFAN-185","OBJECT_ID":"2026-125C","EPOCH":"2026-07-16T19:32:12.749280","CLASSIFICATION_TYPE":"U","MEAN_MOTION":14.04121793,"ECCENTRICITY":0.0018138,"INCLINATION":88.9947,"RA_OF_ASC_NODE":277.1177,"ARG_OF_PERICENTER":77.7751,"MEAN_ANOMALY":282.546,"EPHEMERIS_TYPE":0,"NORAD_CAT_ID":69403,"ELEMENT_SET_NO":999,"REV_AT_EPOCH":588,"BSTAR":0.000089457,"MEAN_MOTION_DOT":0.00000156,"MEAN_MOTION_DDOT":0},{"OBJECT_NAME":"QIANFAN-186","OBJECT_ID":"2026-125D","EPOCH":"2026-07-16T17:50:58.169184","CLASSIFICATION_TYPE":"U","MEAN_MOTION":13.89291913,"ECCENTRICITY":0.0013946,"INCLINATION":88.9946,"RA_OF_ASC_NODE":277.126,"ARG_OF_PERICENTER":72.4711,"MEAN_ANOMALY":287.7984,"EPHEMERIS_TYPE":0,"NORAD_CAT_ID":69404,"ELEMENT_SET_NO":999,"REV_AT_EPOCH":587,"BSTAR":-1.7757,"MEAN_MOTION_DOT":-0.0201481,"MEAN_MOTION_DDOT":0},{"OBJECT_NAME":"QIANFAN-187","OBJECT_ID":"2026-125E","EPOCH":"2026-07-16T18:58:15.357792","CLASSIFICATION_TYPE":"U","MEAN_MOTION":13.90965797,"ECCENTRICITY":0.0016974,"INCLINATION":88.9943,"RA_OF_ASC_NODE":277.1145,"ARG_OF_PERICENTER":76.8517,"MEAN_ANOMALY":283.4549,"EPHEMERIS_TYPE":0,"NORAD_CAT_ID":69405,"ELEMENT_SET_NO":999,"REV_AT_EPOCH":588,"BSTAR":-1.7532,"MEAN_MOTION_DOT":-0.02045996,"MEAN_MOTION_DDOT":0},{"OBJECT_NAME":"QIANFAN-188","OBJECT_ID":"2026-125F","EPOCH":"2026-07-16T18:13:46.540416","CLASSIFICATION_TYPE":"U","MEAN_MOTION":13.93203073,"ECCENTRICITY":0.0021543,"INCLINATION":88.9939,"RA_OF_ASC_NODE":277.109,"ARG_OF_PERICENTER":82.7298,"MEAN_ANOMALY":277.6325,"EPHEMERIS_TYPE":0,"NORAD_CAT_ID":69406,"ELEMENT_SET_NO":999,"REV_AT_EPOCH":588,"BSTAR":-1.683,"MEAN_MOTION_DOT":-0.02043252,"MEAN_MOTION_DDOT":0},{"OBJECT_NAME":"QIANFAN-189","OBJECT_ID":"2026-125G","EPOCH":"2026-07-16T18:37:09.374880","CLASSIFICATION_TYPE":"U","MEAN_MOTION":13.92330878,"ECCENTRICITY":0.0018797,"INCLINATION":88.9939,"RA_OF_ASC_NODE":277.1125,"ARG_OF_PERICENTER":80.9773,"MEAN_ANOMALY":279.3528,"EPHEMERIS_TYPE":0,"NORAD_CAT_ID":69407,"ELEMENT_SET_NO":999,"REV_AT_EPOCH":587,"BSTAR":-1.7245,"MEAN_MOTION_DOT":-0.02060033,"MEAN_MOTION_DDOT":0},{"OBJECT_NAME":"QIANFAN-190","OBJECT_ID":"2026-125H","EPOCH":"2026-07-16T18:29:55.418784","CLASSIFICATION_TYPE":"U","MEAN_MOTION":13.93260735,"ECCENTRICITY":0.0021594,"INCLINATION":88.9939,"RA_OF_ASC_NODE":277.1122,"ARG_OF_PERICENTER":79.3747,"MEAN_ANOMALY":280.9858,"EPHEMERIS_TYPE":0,"NORAD_CAT_ID":69408,"ELEMENT_SET_NO":999,"REV_AT_EPOCH":588,"BSTAR":-1.6776,"MEAN_MOTION_DOT":-0.02039027,"MEAN_MOTION_DDOT":0},{"OBJECT_NAME":"QIANFAN-191","OBJECT_ID":"2026-125J","EPOCH":"2026-07-16T18:03:17.839584","CLASSIFICATION_TYPE":"U","MEAN_MOTION":13.92432133,"ECCENTRICITY":0.0020223,"INCLINATION":88.9945,"RA_OF_ASC_NODE":277.1089,"ARG_OF_PERICENTER":79.8545,"MEAN_ANOMALY":280.4909,"EPHEMERIS_TYPE":0,"NORAD_CAT_ID":69409,"ELEMENT_SET_NO":999,"REV_AT_EPOCH":588,"BSTAR":-1.762,"MEAN_MOTION_DOT":-0.02105583,"MEAN_MOTION_DDOT":0},{"OBJECT_NAME":"QIANFAN-192","OBJECT_ID":"2026-125K","EPOCH":"2026-07-16T17:44:55.386816","CLASSIFICATION_TYPE":"U","MEAN_MOTION":13.92020807,"ECCENTRICITY":0.0019469,"INCLINATION":88.9941,"RA_OF_ASC_NODE":277.1079,"ARG_OF_PERICENTER":77.4496,"MEAN_ANOMALY":282.8854,"EPHEMERIS_TYPE":0,"NORAD_CAT_ID":69410,"ELEMENT_SET_NO":999,"REV_AT_EPOCH":588,"BSTAR":-1.7426,"MEAN_MOTION_DOT":-0.02069998,"MEAN_MOTION_DDOT":0}]}
