QIANFAN-177             
1 69394U 26124N   26197.85118992  .00000153  00000+0  10052-3 0  9993
2 69394  88.9998 358.6841 0008020  60.3228 299.8746 13.96595567  6018
QIANFAN-178             
1 69395U 26124P   26197.69894728 -.02005659  00000+0 -15764+1 0  9996
2 69395  88.9987 358.6988 0012055  81.8515 278.4028 13.95891041  5996
QIANFAN-179             
1 69396U 26124Q   26197.82838513 -.00000002  00000+0 -10721-4 0  9999
2 69396  88.9999 358.6813 0006635  65.2957 294.8911 13.98797817  6016
QIANFAN-180             
1 69397U 26124R   26197.83294515  .00000027  00000+0  97106-5 0  9997
2 69397  89.0000 358.6815 0007007  63.6670 296.5226 13.97121275  6018
QIANFAN-181             
1 69398U 26124S   26197.80170525 -.00000055  00000+0 -57542-4 0  9991
2 69398  89.0002 358.7323 0005689  52.8680 307.3011 13.88015447  5982
QIANFAN-182             
1 69399U 26124T   26197.74459793 -.01996081  00000+0 -18585+1 0  9996
2 69399  88.9993 358.7257 0006005  80.4334 279.7515 13.86082197  5976
QIANFAN-183             
1 69401U 26125A   26196.90461288 -.02040286  00000+0 -16802+1 0  9998
2 69401  88.9936 277.2224 0019656  84.2218 276.1198 13.93228802  5752
QIANFAN-184             
1 69402U 26125B   26197.03882712 -.01999442  00000+0 -17177+1 0  9995
2 69402  88.9945 277.2067 0015767  87.5099 272.7879 13.90731966  5777
QIANFAN-185             
1 69403U 26125C   26197.81403645  .00000156  00000+0  89457-4 0  9992
2 69403  88.9947 277.1177 0018138  77.7751 282.5460 14.04121793  5886
QIANFAN-186             
1 69404U 26125D   26197.74372881 -.02014810  00000+0 -17757+1 0  9998
2 69404  88.9946 277.1260 0013946  72.4711 287.7984 13.89291913  5870
QIANFAN-187             
1 69405U 26125E   26197.79045553 -.02045996  00000+0 -17532+1 0  9997
2 69405  88.9943 277.1145 0016974  76.8517 283.4549 13.90965797  5887
QIANFAN-188             
1 69406U 26125F   26197.75956644 -.02043252  00000+0 -16830+1 0  9999
2 69406  88.9939 277.1090 0021543  82.7298 277.6325 13.93203073  5884
QIANFAN-189             
1 69407U 26125G   26197.77580295 -.02060033  00000+0 -17245+1 0  9994
2 69407  88.9939 277.1125 0018797  80.9773 279.3528 13.92330878  5875
QIANFAN-190             
1 69408U 26125H   26197.77078031 -.02039027  00000+0 -16776+1 0  9992
2 69408  88.9939 277.1122 0021594  79.3747 280.9858 13.93260735  5885
QIANFAN-191             
1 69409U 26125J   26197.75228981 -.02105583  00000+0 -17620+1 0  9992
2 69409  88.9945 277.1089 0020223  79.8545 280.4909 13.92432133  5888
QIANFAN-192             
1 69410U 26125K   26197.73952994 -.02069998  00000+0 -17426+1 0  9993
2 69410  88.9941 277.1079 0019469  77.4496 282.8854 13.92020807  5880
